[{"OBJECT_NAME":"STARLINK-30822","OBJECT_ID":"2023-167U","EPOCH":"2026-03-09T13:30:21.009024","MEAN_MOTION":15.26729916,"ECCENTRICITY":4.95e-5,"INCLINATION":43.0017,"RA_OF_ASC_NODE":144.2908,"ARG_OF_PERICENTER":333.5405,"MEAN_ANOMALY":26.5421,"EPHEMERIS_TYPE":0,"CLASSIFICATION_TYPE":"U","NORAD_CAT_ID":58193,"ELEMENT_SET_NO":999,"REV_AT_EPOCH":13096,"BSTAR":4.971e-5,"MEAN_MOTION_DOT":1.074e-5,"MEAN_MOTION_DDOT":0},{"OBJECT_NAME":"TRANSPORTER-1 OBJECT AA","OBJECT_ID":"2021-006AA","EPOCH":"2026-03-09T22:58:14.761920","MEAN_MOTION":15.29982294,"ECCENTRICITY":0.00086604,"INCLINATION":97.2381,"RA_OF_ASC_NODE":112.457,"ARG_OF_PERICENTER":185.709,"MEAN_ANOMALY":174.4054,"EPHEMERIS_TYPE":0,"CLASSIFICATION_TYPE":"U","NORAD_CAT_ID":47437,"ELEMENT_SET_NO":999,"REV_AT_EPOCH":28414,"BSTAR":0.0002197941,"MEAN_MOTION_DOT":6.312e-5,"MEAN_MOTION_DDOT":0}]
